******** Week 934 almanac for PRN-07 ********
ID:                         07
Health:                     000
Eccentricity:               2.9029846191E-003
Time of Applicability(s):  258048.0000
Orbital Inclination(rad):  -0.0823975383
Rate of Right Ascen(r/s):  -1.6686409300E-009
SQRT(A)  (m 1/2):           6493.777832
Right Ascen at Week(rad):  -2.4684582150E+000
Argument of Perigee(rad):  -2.597245564
Mean Anom(rad):             6.0932593100E-001
Af0(s):                    -3.9196010000E-004
Af1(s/s):                  -5.8207700000E-011
week:                        934

******** Week 934 almanac for PRN-08 ********
ID:                         08
Health:                     000
Eccentricity:               2.7370452881E-003
Time of Applicability(s):  258048.0000
Orbital Inclination(rad):   0.1238989092
Rate of Right Ascen(r/s):  -2.0343704500E-009
SQRT(A)  (m 1/2):           6493.711914
Right Ascen at Week(rad):  -2.7157676800E-001
Argument of Perigee(rad):   3.133380089
Mean Anom(rad):            -1.0383686730E+000
Af0(s):                     2.1266940000E-004
Af1(s/s):                  -2.1827900000E-011
week:                        934

******** Week 934 almanac for PRN-09 ********
ID:                         09
Health:                     000
Eccentricity:               1.1157035828E-002
Time of Applicability(s):  258048.0000
Orbital Inclination(rad):   0.0079934780
Rate of Right Ascen(r/s):  -1.9086509300E-009
SQRT(A)  (m 1/2):           6493.662109
Right Ascen at Week(rad):   1.9076601560E+000
Argument of Perigee(rad):  -2.326695695
Mean Anom(rad):             2.0084081640E+000
Af0(s):                    -1.4972690000E-004
Af1(s/s):                  -5.0931700000E-011
week:                        934

